{"type":"FeatureCollection","features":[{"type":"Feature","properties":{},"geometry":{"type":"Polygon","coordinates":[[[-71.08332100878904,42.38356686973675],[-71.0776862645167,42.38330487380687],[-71.07214052270508,42.382523024349105],[-71.06677137342851,42.38123367068558],[-71.061663604816,42.37945717716988],[-71.05689785875259,42.37722160010932],[-71.05254935349122,42.374562242784776],[-71.04868669367414,42.371521095744335],[-71.04537078676537,42.36814617138424],[-71.04265388308355,42.36449074351306],[-71.04057875453616,42.360612504096466],[-71.03917802483134,42.356572650675986],[-71.0384736614287,42.352434919026095],[-71.0384766368341,42.34826457644441],[-71.03918676409216,42.34412739164886],[-71.04059270853315,42.34008859757627],[-71.0426721750367,42.3362118634385],[-71.04539226732496,42.332558292194975],[-71.04871001313836,42.329185459152725],[-71.05257304661271,42.326146506715205],[-71.0569204368053,42.32348930938372],[-71.06168364913725,42.32125572198599],[-71.06678762455898,42.31948092278496],[-71.07215195952553,42.318192861627814],[-71.07769216840877,42.31741182165508],[-71.08332100878904,42.3171501013259],[-71.08894984916931,42.31741182165508],[-71.09449005805256,42.318192861627814],[-71.0998543930191,42.31948092278496],[-71.10495836844082,42.32125572198599],[-71.10972158077278,42.32348930938372],[-71.11406897096536,42.326146506715205],[-71.11793200443972,42.329185459152725],[-71.12124975025311,42.332558292194975],[-71.12396984254137,42.3362118634385],[-71.12604930904492,42.34008859757627],[-71.12745525348592,42.34412739164886],[-71.12816538074397,42.34826457644441],[-71.12816835614937,42.352434919026095],[-71.12746399274674,42.356572650675986],[-71.12606326304191,42.360612504096466],[-71.12398813449454,42.36449074351306],[-71.12127123081271,42.36814617138424],[-71.11795532390393,42.371521095744335],[-71.11409266408687,42.374562242784776],[-71.10974415882549,42.37722160010932],[-71.10497841276208,42.37945717716988],[-71.09987064414958,42.38123367068558],[-71.094501494873,42.382523024349105],[-71.08895575306138,42.38330487380687],[-71.08332100878904,42.38356686973675]]]}}]}